OBJECT_NAME,OBJECT_ID,EPOCH,MEAN_MOTION,ECCENTRICITY,INCLINATION,RA_OF_ASC_NODE,ARG_OF_PERICENTER,MEAN_ANOMALY,EPHEMERIS_TYPE,CLASSIFICATION_TYPE,NORAD_CAT_ID,ELEMENT_SET_NO,REV_AT_EPOCH,BSTAR,MEAN_MOTION_DOT,MEAN_MOTION_DDOT
ONEWEB-0198,2021-031G,2026-07-20T17:14:40.987680,13.14503363,.000243,87.8964,283.0299,94.9146,265.2261,0,U,48216,999,25289,-.60239E-3,-.211E-5,0
ONEWEB-0189,2021-031H,2026-07-20T17:32:45.408768,13.14503187,.0002362,87.8966,283.0155,98.1238,262.0160,0,U,48217,999,25263,-.31964E-3,-.106E-5,0
ONEWEB-0196,2021-031J,2026-07-20T18:50:23.656128,13.14502771,.0002183,87.8965,283.0130,97.0434,263.0944,0,U,48218,999,25264,-.62035E-3,-.217E-5,0
ONEWEB-0183,2021-031K,2026-07-20T18:13:51.605184,13.14502149,.0001887,87.8962,283.0157,93.7502,266.3844,0,U,48219,999,25273,.48442E-3,.192E-5,0
ONEWEB-0185,2021-031L,2026-07-20T18:51:30.559968,13.14501171,.0002088,87.8968,283.0062,87.0009,273.1360,0,U,48220,999,25266,-.57933E-3,-.202E-5,0
ONEWEB-0187,2021-031M,2026-07-20T18:22:47.065728,13.14502801,.0002151,87.8964,283.0237,95.0984,265.0391,0,U,48221,999,25267,.23651E-3,.1E-5,0
ONEWEB-0192,2021-031N,2026-07-20T17:39:36.103392,13.14503579,.0002136,87.8958,283.0198,100.1402,259.9969,0,U,48222,999,25258,-.15032E-4,.7E-7,0
ONEWEB-0219,2021-031P,2026-07-20T18:59:30.168096,13.14502106,.0002181,87.8971,283.0027,92.5005,267.6375,0,U,48223,999,25279,-.12013E-2,-.433E-5,0
ONEWEB-0202,2021-031Q,2026-07-20T18:32:08.041056,13.14502556,.00027,87.8966,283.0182,103.2480,256.8951,0,U,48224,999,25277,-.26025E-4,.3E-7,0
ONEWEB-0204,2021-031R,2026-07-20T17:31:35.976000,13.14503559,.0001696,87.8964,283.0209,90.6319,269.5005,0,U,48225,999,25266,-.28296E-3,-.92E-6,0
ONEWEB-0205,2021-031S,2026-07-20T16:56:12.107616,13.14523918,.0002108,87.8973,283.0214,91.2621,268.8751,0,U,48226,999,25267,-.11989E-1,-.4431E-4,0
ONEWEB-0206,2021-031T,2026-07-20T18:07:00.352416,13.14501887,.0001916,87.8968,283.0114,103.0383,257.0960,0,U,48227,999,25263,.46976E-3,.187E-5,0
ONEWEB-0182,2021-031U,2026-07-20T18:00:07.883136,13.14503784,.0001852,87.8963,283.0188,95.0194,265.1147,0,U,48228,999,25284,.37752E-3,.153E-5,0
ONEWEB-0186,2021-031V,2026-07-20T18:16:08.101632,13.14503065,.0002076,87.8974,283.0104,96.3944,263.7422,0,U,48229,999,25279,.53578E-3,.211E-5,0
ONEWEB-0181,2021-031W,2026-07-20T17:44:09.220704,13.14502024,.0002214,87.8951,283.0387,96.4076,263.7306,0,U,48230,999,25264,.12579E-3,.59E-6,0
ONEWEB-0188,2021-031X,2026-07-20T18:38:58.128288,13.14502410,.0002058,87.8955,283.0301,97.5951,262.5413,0,U,48231,999,25255,-.86432E-4,-.19E-6,0
ONEWEB-0220,2021-031Y,2026-07-20T17:46:30.063936,13.14501023,.0002106,87.8968,283.0158,92.3659,267.7711,0,U,48232,999,25281,.19861E-2,.749E-5,0
ONEWEB-0165,2021-031Z,2026-07-20T18:27:33.157728,13.14503472,.0002433,87.8966,283.0205,98.6336,261.5069,0,U,48233,999,25277,.21167E-5,.14E-6,0
ONEWEB-0199,2021-031AA,2026-07-20T18:04:43.684032,13.14502371,.0001865,87.8970,283.0114,101.9283,258.2056,0,U,48234,999,25267,.5235E-3,.207E-5,0
ONEWEB-0203,2021-031AB,2026-07-20T17:51:01.533600,13.14501863,.0002111,87.8967,283.0162,103.8959,256.2406,0,U,48235,999,25268,.3737E-3,.151E-5,0
ONEWEB-0197,2021-031AC,2026-07-20T19:03:52.959744,13.14502621,.000192,87.8960,282.9891,91.9769,268.1581,0,U,48236,999,25260,-.57146E-3,-.199E-5,0
ONEWEB-0194,2021-031AD,2026-07-20T18:34:23.237184,13.14503718,.000196,87.8965,283.0170,105.4933,254.6414,0,U,48237,999,25277,.28889E-4,.24E-6,0
ONEWEB-0193,2021-031AE,2026-07-20T17:07:37.995744,13.14502549,.0001903,87.8964,283.0193,111.0931,249.0402,0,U,48238,999,25271,-.74389E-3,-.263E-5,0
ONEWEB-0191,2021-031AF,2026-07-20T17:23:34.732320,13.14503525,.0001906,87.8970,283.0181,95.3398,264.7949,0,U,48239,999,25257,-.15959E-2,-.579E-5,0
ONEWEB-0195,2021-031AG,2026-07-20T18:40:08.101056,13.14505221,.0002383,87.8973,283.0078,96.7728,263.3673,0,U,48240,999,25256,-.66226E-3,-.233E-5,0
ONEWEB-0201,2021-031AH,2026-07-20T16:33:34.200288,13.14502548,.0001955,87.8963,283.0390,90.2857,269.8497,0,U,48241,999,25278,.27171E-3,.114E-5,0
ONEWEB-0207,2021-031AJ,2026-07-20T17:54:26.020800,13.14501155,.0001942,87.8968,283.0148,91.8145,268.3207,0,U,48242,999,25270,.51807E-3,.205E-5,0
ONEWEB-0208,2021-031AK,2026-07-20T17:28:10.775136,13.14502809,.0002415,87.8962,283.0231,99.2286,260.9117,0,U,48243,999,25271,-.37235E-3,-.125E-5,0
ONEWEB-0200,2021-031AL,2026-07-20T18:25:16.872960,13.14502225,.0002116,87.8977,283.0049,96.2470,263.8900,0,U,48244,999,25264,.20208E-3,.88E-6,0
ONEWEB-0217,2021-031AM,2026-07-20T18:48:06.160032,13.14502715,.0002434,87.8975,283.0058,99.4081,260.7324,0,U,48245,999,25259,-.55928E-3,-.195E-5,0
